[{"OBJECT_NAME":"DONGPO 08","OBJECT_ID":"2022-167E","EPOCH":"2026-03-09T22:57:52.742880","MEAN_MOTION":15.31542505,"ECCENTRICITY":0.00092155,"INCLINATION":97.6764,"RA_OF_ASC_NODE":233.3854,"ARG_OF_PERICENTER":153.9158,"MEAN_ANOMALY":206.2548,"EPHEMERIS_TYPE":0,"CLASSIFICATION_TYPE":"U","NORAD_CAT_ID":54686,"ELEMENT_SET_NO":999,"REV_AT_EPOCH":18012,"BSTAR":0.0004734784,"MEAN_MOTION_DOT":0.0001437,"MEAN_MOTION_DDOT":0},{"OBJECT_NAME":"STARLINK-31035","OBJECT_ID":"2023-192B","EPOCH":"2026-03-09T23:20:57.031584","MEAN_MOTION":15.30222302,"ECCENTRICITY":7.916e-5,"INCLINATION":53.1615,"RA_OF_ASC_NODE":48.2681,"ARG_OF_PERICENTER":112.6293,"MEAN_ANOMALY":247.4792,"EPHEMERIS_TYPE":0,"CLASSIFICATION_TYPE":"U","NORAD_CAT_ID":58532,"ELEMENT_SET_NO":999,"REV_AT_EPOCH":12621,"BSTAR":0.00015725891,"MEAN_MOTION_DOT":4.304e-5,"MEAN_MOTION_DDOT":0}]
